{"type": "FeatureCollection", "features": [ {"type": "Feature", "properties": {"norad_id": 33730, "name": "FENGYUN 1C DEB", "group": "fengyun-1c-debris", "lat": -15.507826629316837, "lon": -126.25424844386461, "alt_km": 708.2395685648517, "timestamp": "2025-12-23T11:34:48.449635+00:00", "meta": {"OBJECT_NAME": "FENGYUN 1C DEB", "OBJECT_ID": "1999-025DHT", "EPOCH": "2025-12-17T10:18:00.572256", "MEAN_MOTION": 14.63540792, "ECCENTRICITY": 0.00393712, "INCLINATION": 99.0546, "RA_OF_ASC_NODE": 49.6389, "ARG_OF_PERICENTER": 356.5197, "MEAN_ANOMALY": 3.5723, "EPHEMERIS_TYPE": 0, "CLASSIFICATION_TYPE": "U", "NORAD_CAT_ID": 33730, "ELEMENT_SET_NO": 999, "REV_AT_EPOCH": 95748, "BSTAR": 0.0011805307, "MEAN_MOTION_DOT": 6.139e-05, "MEAN_MOTION_DDOT": 0}, "tle": {"line1": "1 33730U 99025DHT 25351.42917329  .00006139  00000+0  11805-2 0  9999", "line2": "2 33730  99.0546  49.6389 0039371 356.5197   3.5723 14.63540792957483"}}, "geometry": {"type": "Point", "coordinates": [-126.25424844386461, -15.507826629316837]}}, {"type": "Feature", "properties": {"norad_id": 33731, "name": "FENGYUN 1C DEB", "group": "fengyun-1c-debris", "lat": -50.34269624236759, "lon": 31.54245422114246, "alt_km": 896.6020367742158, "timestamp": "2025-12-23T11:34:48.449645+00:00", "meta": {"OBJECT_NAME": "FENGYUN 1C DEB", "OBJECT_ID": "1999-025DHU", "EPOCH": "2025-12-22T18:36:47.179584", "MEAN_MOTION": 13.95374154, "ECCENTRICITY": 0.01288614, "INCLINATION": 99.444, "RA_OF_ASC_NODE": 19.2357, "ARG_OF_PERICENTER": 29.0665, "MEAN_ANOMALY": 331.7591, "EPHEMERIS_TYPE": 0, "CLASSIFICATION_TYPE": "U", "NORAD_CAT_ID": 33731, "ELEMENT_SET_NO": 999, "REV_AT_EPOCH": 90589, "BSTAR": 0.0013898511, "MEAN_MOTION_DOT": 1.972e-05, "MEAN_MOTION_DDOT": 0}, "tle": {"line1": "1 33731U 99025DHU 25356.77554606  .00001972  00000+0  13899-2 0  9993", "line2": "2 33731  99.4440  19.2357 0128861  29.0665 331.7591 13.95374154905892"}}, "geometry": {"type": "Point", "coordinates": [31.54245422114246, -50.34269624236759]}}, {"type": "Feature", "properties": {"norad_id": 33733, "name": "FENGYUN 1C DEB", "group": "fengyun-1c-debris", "lat": -48.888798911568195, "lon": -107.26659495816442, "alt_km": 794.2231482915595, "timestamp": "2025-12-23T11:34:48.449653+00:00", "meta": {"OBJECT_NAME": "FENGYUN 1C DEB", "OBJECT_ID": "1999-025DHW", "EPOCH": "2025-12-14T05:17:42.025920", "MEAN_MOTION": 14.31052291, "ECCENTRICITY": 0.0080503, "INCLINATION": 99.1007, "RA_OF_ASC_NODE": 73.621, "ARG_OF_PERICENTER": 166.27, "MEAN_ANOMALY": 251.3144, "EPHEMERIS_TYPE": 0, "CLASSIFICATION_TYPE": "U", "NORAD_CAT_ID": 33733, "ELEMENT_SET_NO": 999, "REV_AT_EPOCH": 90469, "BSTAR": 0.0032633155, "MEAN_MOTION_DOT": 8.868e-05, "MEAN_MOTION_DDOT": 0}, "tle": {"line1": "1 33733U 99025DHW 25348.22062530  .00008868  00000+0  32633-2 0  9994", "line2": "2 33733  99.1007  73.6210 0080503 166.2700 251.3144 14.31052291904690"}}, "geometry": {"type": "Point", "coordinates": [-107.26659495816442, -48.888798911568195]}}, {"type": "Feature", "properties": {"norad_id": 33737, "name": "FENGYUN 1C DEB", "group": "fengyun-1c-debris", "lat": 56.76930383308856, "lon": 177.56722640517012, "alt_km": 967.8321157391038, "timestamp": "2025-12-23T11:34:48.449664+00:00", "meta": {"OBJECT_NAME": "FENGYUN 1C DEB", "OBJECT_ID": "1999-025DJA", "EPOCH": "2025-12-23T01:37:13.912032", "MEAN_MOTION": 14.03039814, "ECCENTRICITY": 0.0128362, "INCLINATION": 98.3387, "RA_OF_ASC_NODE": 190.1231, "ARG_OF_PERICENTER": 253.8161, "MEAN_ANOMALY": 228.6943, "EPHEMERIS_TYPE": 0, "CLASSIFICATION_TYPE": "U", "NORAD_CAT_ID": 33737, "ELEMENT_SET_NO": 999, "REV_AT_EPOCH": 88885, "BSTAR": 0.0012773, "MEAN_MOTION_DOT": 2.095e-05, "MEAN_MOTION_DDOT": 0}, "tle": {"line1": "1 33737U 99025DJA 25357.06752213  .00002095  00000+0  12773-2 0  9993", "line2": "2 33737  98.3387 190.1231 0128362 253.8161 228.6943 14.03039814888852"}}, "geometry": {"type": "Point", "coordinates": [177.56722640517012, 56.76930383308856]}}, {"type": "Feature", "properties": {"norad_id": 33738, "name": "FENGYUN 1C DEB", "group": "fengyun-1c-debris", "lat": -22.171186262993, "lon": -126.25087468568256, "alt_km": 1015.6764481270857, "timestamp": "2025-12-23T11:34:48.449679+00:00", "meta": {"OBJECT_NAME": "FENGYUN 1C DEB", "OBJECT_ID": "1999-025DJB", "EPOCH": "2025-12-21T10:38:24.542304", "MEAN_MOTION": 13.99545443, "ECCENTRICITY": 0.01844931, "INCLINATION": 99.1507, "RA_OF_ASC_NODE": 55.4765, "ARG_OF_PERICENTER": 357.5118, "MEAN_ANOMALY": 17.4726, "EPHEMERIS_TYPE": 0, "CLASSIFICATION_TYPE": "U", "NORAD_CAT_ID": 33738, "ELEMENT_SET_NO": 999, "REV_AT_EPOCH": 89358, "BSTAR": 0.00043721449, "MEAN_MOTION_DOT": 6.93e-06, "MEAN_MOTION_DDOT": 0}, "tle": {"line1": "1 33738U 99025DJB 25355.44333961  .00000693  00000+0  43721-3 0  9999", "line2": "2 33738  99.1507  55.4765 0184493 357.5118  17.4726 13.99545443893585"}}, "geometry": {"type": "Point", "coordinates": [-126.25087468568256, -22.171186262993]}}, {"type": "Feature", "properties": {"norad_id": 33740, "name": "FENGYUN 1C DEB", "group": "fengyun-1c-debris", "lat": 14.76926975958764, "lon": 7.7527865433302585, "alt_km": 852.2125149045551, "timestamp": "2025-12-23T11:34:48.449689+00:00", "meta": {"OBJECT_NAME": "FENGYUN 1C DEB", "OBJECT_ID": "1999-025DJD", "EPOCH": "2025-12-18T07:23:22.108128", "MEAN_MOTION": 14.12325643, "ECCENTRICITY": 0.00021877, "INCLINATION": 98.6868, "RA_OF_ASC_NODE": 5.0478, "ARG_OF_PERICENTER": 119.664, "MEAN_ANOMALY": 240.475, "EPHEMERIS_TYPE": 0, "CLASSIFICATION_TYPE": "U", "NORAD_CAT_ID": 33740, "ELEMENT_SET_NO": 999, "REV_AT_EPOCH": 90225, "BSTAR": 0.00012962131, "MEAN_MOTION_DOT": 1.96e-06, "MEAN_MOTION_DDOT": 0}, "tle": {"line1": "1 33740U 99025DJD 25352.30789477  .00000196  00000+0  12962-3 0  9992", "line2": "2 33740  98.6868   5.0478 0002187 119.6640 240.4750 14.12325643902254"}}, "geometry": {"type": "Point", "coordinates": [7.7527865433302585, 14.76926975958764]}}, {"type": "Feature", "properties": {"norad_id": 33741, "name": "FENGYUN 1C DEB", "group": "fengyun-1c-debris", "lat": -42.57217168959262, "lon": -81.4751568020388, "alt_km": 882.8901011463349, "timestamp": "2025-12-23T11:34:48.449698+00:00", "meta": {"OBJECT_NAME": "FENGYUN 1C DEB", "OBJECT_ID": "1999-025DJE", "EPOCH": "2025-12-20T17:21:28.699776", "MEAN_MOTION": 14.09870103, "ECCENTRICITY": 0.01285709, "INCLINATION": 98.5653, "RA_OF_ASC_NODE": 267.9394, "ARG_OF_PERICENTER": 65.7344, "MEAN_ANOMALY": 295.7197, "EPHEMERIS_TYPE": 0, "CLASSIFICATION_TYPE": "U", "NORAD_CAT_ID": 33741, "ELEMENT_SET_NO": 999, "REV_AT_EPOCH": 56975, "BSTAR": 0.0014103397, "MEAN_MOTION_DOT": 2.64e-05, "MEAN_MOTION_DDOT": 0}, "tle": {"line1": "1 33741U 99025DJE 25354.72324884  .00002640  00000+0  14103-2 0  9992", "line2": "2 33741  98.5653 267.9394 0128570  65.7344 295.7197 14.09870103569753"}}, "geometry": {"type": "Point", "coordinates": [-81.4751568020388, -42.57217168959262]}}, {"type": "Feature", "properties": {"norad_id": 33745, "name": "FENGYUN 1C DEB", "group": "fengyun-1c-debris", "lat": 77.61032838453629, "lon": -11.941167197534277, "alt_km": 845.2536560412645, "timestamp": "2025-12-23T11:34:48.449707+00:00", "meta": {"OBJECT_NAME": "FENGYUN 1C DEB", "OBJECT_ID": "1999-025DJJ", "EPOCH": "2025-12-22T19:59:59.794944", "MEAN_MOTION": 14.22374634, "ECCENTRICITY": 0.0054593, "INCLINATION": 99.1137, "RA_OF_ASC_NODE": 34.335, "ARG_OF_PERICENTER": 237.3834, "MEAN_ANOMALY": 122.2066, "EPHEMERIS_TYPE": 0, "CLASSIFICATION_TYPE": "U", "NORAD_CAT_ID": 33745, "ELEMENT_SET_NO": 999, "REV_AT_EPOCH": 66145, "BSTAR": 0.0014082, "MEAN_MOTION_DOT": 3.135e-05, "MEAN_MOTION_DDOT": 0}, "tle": {"line1": "1 33745U 99025DJJ 25356.83333096  .00003135  00000+0  14082-2 0  9991", "line2": "2 33745  99.1137  34.3350 0054593 237.3834 122.2066 14.22374634661455"}}, "geometry": {"type": "Point", "coordinates": [-11.941167197534277, 77.61032838453629]}}, {"type": "Feature", "properties": {"norad_id": 33747, "name": "FENGYUN 1C DEB", "group": "fengyun-1c-debris", "lat": 10.823863078267522, "lon": -85.82937564457501, "alt_km": 772.814409836933, "timestamp": "2025-12-23T11:34:48.449717+00:00", "meta": {"OBJECT_NAME": "FENGYUN 1C DEB", "OBJECT_ID": "1999-025DJL", "EPOCH": "2025-12-20T01:28:07.665312", "MEAN_MOTION": 14.17505011, "ECCENTRICITY": 0.00910261, "INCLINATION": 99.0962, "RA_OF_ASC_NODE": 88.9142, "ARG_OF_PERICENTER": 197.1954, "MEAN_ANOMALY": 162.6131, "EPHEMERIS_TYPE": 0, "CLASSIFICATION_TYPE": "U", "NORAD_CAT_ID": 33747, "ELEMENT_SET_NO": 999, "REV_AT_EPOCH": 90236, "BSTAR": 0.001836775, "MEAN_MOTION_DOT": 3.837e-05, "MEAN_MOTION_DDOT": 0}, "tle": {"line1": "1 33747U 99025DJL 25354.06119983  .00003837  00000+0  18368-2 0  9993", "line2": "2 33747  99.0962  88.9142 0091026 197.1954 162.6131 14.17505011902362"}}, "geometry": {"type": "Point", "coordinates": [-85.82937564457501, 10.823863078267522]}}, {"type": "Feature", "properties": {"norad_id": 33748, "name": "FENGYUN 1C DEB", "group": "fengyun-1c-debris", "lat": 39.332649881337574, "lon": 41.41779509468151, "alt_km": 805.4224429436181, "timestamp": "2025-12-23T11:34:48.449726+00:00", "meta": {"OBJECT_NAME": "FENGYUN 1C DEB", "OBJECT_ID": "1999-025DJM", "EPOCH": "2025-12-20T21:21:40.065984", "MEAN_MOTION": 14.32332217, "ECCENTRICITY": 0.0034916, "INCLINATION": 98.5853, "RA_OF_ASC_NODE": 45.9627, "ARG_OF_PERICENTER": 216.6923, "MEAN_ANOMALY": 143.1869, "EPHEMERIS_TYPE": 0, "CLASSIFICATION_TYPE": "U", "NORAD_CAT_ID": 33748, "ELEMENT_SET_NO": 999, "REV_AT_EPOCH": 91510, "BSTAR": 0.00084448, "MEAN_MOTION_DOT": 2.253e-05, "MEAN_MOTION_DDOT": 0}, "tle": {"line1": "1 33748U 99025DJM 25354.89004706  .00002253  00000+0  84448-3 0  9995", "line2": "2 33748  98.5853  45.9627 0034916 216.6923 143.1869 14.32332217915106"}}, "geometry": {"type": "Point", "coordinates": [41.41779509468151, 39.332649881337574]}}]}